{"type": "FeatureCollection", "features": [ {"type": "Feature", "properties": {"norad_id": 40534, "name": "GPS BIIF-9  (PRN 26)", "group": "gps-ops", "lat": 37.22648489283921, "lon": -2.4967074278539325, "alt_km": 20187.278800895303, "timestamp": "2025-12-06T18:50:10.427174+00:00", "meta": {"OBJECT_NAME": "GPS BIIF-9  (PRN 26)", "OBJECT_ID": "2015-013A", "EPOCH": "2025-12-05T02:39:15.664608", "MEAN_MOTION": 2.00562945, "ECCENTRICITY": 0.01067231, "INCLINATION": 53.199, "RA_OF_ASC_NODE": 212.2063, "ARG_OF_PERICENTER": 38.2939, "MEAN_ANOMALY": 322.5584, "EPHEMERIS_TYPE": 0, "CLASSIFICATION_TYPE": "U", "NORAD_CAT_ID": 40534, "ELEMENT_SET_NO": 999, "REV_AT_EPOCH": 7793, "BSTAR": 0, "MEAN_MOTION_DOT": 6.7e-07, "MEAN_MOTION_DDOT": 0}, "tle": {"line1": "1 40534U 15013A   25339.11059797  .00000067  00000+0  00000+0 0  9998", "line2": "2 40534  53.1990 212.2063 0106723  38.2939 322.5584  2.00562945 77932"}}, "geometry": {"type": "Point", "coordinates": [-2.4967074278539325, 37.22648489283921]}}, {"type": "Feature", "properties": {"norad_id": 40730, "name": "GPS BIIF-10 (PRN 08)", "group": "gps-ops", "lat": 10.239948135140317, "lon": -77.5010343332442, "alt_km": 19895.98318343991, "timestamp": "2025-12-06T18:50:10.427195+00:00", "meta": {"OBJECT_NAME": "GPS BIIF-10 (PRN 08)", "OBJECT_ID": "2015-033A", "EPOCH": "2025-12-05T06:31:35.095008", "MEAN_MOTION": 2.00565806, "ECCENTRICITY": 0.0110509, "INCLINATION": 54.1373, "RA_OF_ASC_NODE": 275.0802, "ARG_OF_PERICENTER": 26.625, "MEAN_ANOMALY": 333.9439, "EPHEMERIS_TYPE": 0, "CLASSIFICATION_TYPE": "U", "NORAD_CAT_ID": 40730, "ELEMENT_SET_NO": 999, "REV_AT_EPOCH": 7610, "BSTAR": 0, "MEAN_MOTION_DOT": -3e-07, "MEAN_MOTION_DDOT": 0}, "tle": {"line1": "1 40730U 15033A   25339.27193397 -.00000030  00000+0  00000+0 0  9991", "line2": "2 40730  54.1373 275.0802 0110509  26.6250 333.9439  2.00565806 76100"}}, "geometry": {"type": "Point", "coordinates": [-77.5010343332442, 10.239948135140317]}}, {"type": "Feature", "properties": {"norad_id": 41019, "name": "GPS BIIF-11 (PRN 10)", "group": "gps-ops", "lat": -24.88779767361754, "lon": 20.60440102756606, "alt_km": 20233.683521084633, "timestamp": "2025-12-06T18:50:10.427212+00:00", "meta": {"OBJECT_NAME": "GPS BIIF-11 (PRN 10)", "OBJECT_ID": "2015-062A", "EPOCH": "2025-12-04T19:59:07.703520", "MEAN_MOTION": 2.0056698, "ECCENTRICITY": 0.0110602, "INCLINATION": 56.8265, "RA_OF_ASC_NODE": 38.3083, "ARG_OF_PERICENTER": 229.7198, "MEAN_ANOMALY": 129.3626, "EPHEMERIS_TYPE": 0, "CLASSIFICATION_TYPE": "U", "NORAD_CAT_ID": 41019, "ELEMENT_SET_NO": 999, "REV_AT_EPOCH": 7393, "BSTAR": 0, "MEAN_MOTION_DOT": -6.6e-07, "MEAN_MOTION_DDOT": 0}, "tle": {"line1": "1 41019U 15062A   25338.83272805 -.00000066  00000+0  00000+0 0  9996", "line2": "2 41019  56.8265  38.3083 0110602 229.7198 129.3626  2.00566980 73939"}}, "geometry": {"type": "Point", "coordinates": [20.60440102756606, -24.88779767361754]}}, {"type": "Feature", "properties": {"norad_id": 41328, "name": "GPS BIIF-12 (PRN 32)", "group": "gps-ops", "lat": -55.41390244645058, "lon": 6.410028176657667, "alt_km": 19969.57017543879, "timestamp": "2025-12-06T18:50:10.427225+00:00", "meta": {"OBJECT_NAME": "GPS BIIF-12 (PRN 32)", "OBJECT_ID": "2016-007A", "EPOCH": "2025-12-05T09:55:37.612128", "MEAN_MOTION": 2.00560998, "ECCENTRICITY": 0.00917952, "INCLINATION": 55.402, "RA_OF_ASC_NODE": 97.1478, "ARG_OF_PERICENTER": 243.3887, "MEAN_ANOMALY": 115.6411, "EPHEMERIS_TYPE": 0, "CLASSIFICATION_TYPE": "U", "NORAD_CAT_ID": 41328, "ELEMENT_SET_NO": 999, "REV_AT_EPOCH": 7195, "BSTAR": 0, "MEAN_MOTION_DOT": -1.1e-07, "MEAN_MOTION_DDOT": 0}, "tle": {"line1": "1 41328U 16007A   25339.41362977 -.00000011  00000+0  00000+0 0  9994", "line2": "2 41328  55.4020  97.1478 0091795 243.3887 115.6411  2.00560998 71958"}}, "geometry": {"type": "Point", "coordinates": [6.410028176657667, -55.41390244645058]}}, {"type": "Feature", "properties": {"norad_id": 43873, "name": "GPS BIII-1  (PRN 04)", "group": "gps-ops", "lat": 13.340127501973969, "lon": -89.58068103782972, "alt_km": 20096.758394674485, "timestamp": "2025-12-06T18:50:10.427241+00:00", "meta": {"OBJECT_NAME": "GPS BIII-1  (PRN 04)", "OBJECT_ID": "2018-109A", "EPOCH": "2025-12-06T07:17:11.236992", "MEAN_MOTION": 2.00553219, "ECCENTRICITY": 0.00371759, "INCLINATION": 55.5637, "RA_OF_ASC_NODE": 99.801, "ARG_OF_PERICENTER": 194.724, "MEAN_ANOMALY": 341.7092, "EPHEMERIS_TYPE": 0, "CLASSIFICATION_TYPE": "U", "NORAD_CAT_ID": 43873, "ELEMENT_SET_NO": 999, "REV_AT_EPOCH": 5120, "BSTAR": 0, "MEAN_MOTION_DOT": -5e-08, "MEAN_MOTION_DDOT": 0}, "tle": {"line1": "1 43873U 18109A   25340.30360228 -.00000005  00000+0  00000+0 0  9996", "line2": "2 43873  55.5637  99.8010 0037175 194.7240 341.7092  2.00553219 51206"}}, "geometry": {"type": "Point", "coordinates": [-89.58068103782972, 13.340127501973969]}}, {"type": "Feature", "properties": {"norad_id": 44506, "name": "GPS BIII-2  (PRN 18)", "group": "gps-ops", "lat": 45.783908114460885, "lon": 23.285276025287487, "alt_km": 20290.702539821355, "timestamp": "2025-12-06T18:50:10.427253+00:00", "meta": {"OBJECT_NAME": "GPS BIII-2  (PRN 18)", "OBJECT_ID": "2019-056A", "EPOCH": "2025-12-05T10:37:28.856640", "MEAN_MOTION": 2.00565628, "ECCENTRICITY": 0.00578088, "INCLINATION": 55.7239, "RA_OF_ASC_NODE": 338.8423, "ARG_OF_PERICENTER": 198.4648, "MEAN_ANOMALY": 333.0445, "EPHEMERIS_TYPE": 0, "CLASSIFICATION_TYPE": "U", "NORAD_CAT_ID": 44506, "ELEMENT_SET_NO": 999, "REV_AT_EPOCH": 4618, "BSTAR": 0, "MEAN_MOTION_DOT": -7.6e-07, "MEAN_MOTION_DDOT": 0}, "tle": {"line1": "1 44506U 19056A   25339.44269510 -.00000076  00000+0  00000+0 0  9995", "line2": "2 44506  55.7239 338.8423 0057808 198.4648 333.0445  2.00565628 46186"}}, "geometry": {"type": "Point", "coordinates": [23.285276025287487, 45.783908114460885]}}, {"type": "Feature", "properties": {"norad_id": 45854, "name": "GPS BIII-3  (PRN 23)", "group": "gps-ops", "lat": 4.12786627193423, "lon": 39.17015650152553, "alt_km": 20334.388755212214, "timestamp": "2025-12-06T18:50:10.427264+00:00", "meta": {"OBJECT_NAME": "GPS BIII-3  (PRN 23)", "OBJECT_ID": "2020-041A", "EPOCH": "2025-12-05T00:44:21.679872", "MEAN_MOTION": 2.00561656, "ECCENTRICITY": 0.00602963, "INCLINATION": 56.5415, "RA_OF_ASC_NODE": 36.4861, "ARG_OF_PERICENTER": 203.0901, "MEAN_ANOMALY": 335.2174, "EPHEMERIS_TYPE": 0, "CLASSIFICATION_TYPE": "U", "NORAD_CAT_ID": 45854, "ELEMENT_SET_NO": 999, "REV_AT_EPOCH": 4014, "BSTAR": 0, "MEAN_MOTION_DOT": -6.7e-07, "MEAN_MOTION_DDOT": 0}, "tle": {"line1": "1 45854U 20041A   25339.03080648 -.00000067  00000+0  00000+0 0  9996", "line2": "2 45854  56.5415  36.4861 0060296 203.0901 335.2174  2.00561656 40145"}}, "geometry": {"type": "Point", "coordinates": [39.17015650152553, 4.12786627193423]}}, {"type": "Feature", "properties": {"norad_id": 46826, "name": "GPS BIII-4  (PRN 14)", "group": "gps-ops", "lat": -19.159971592629184, "lon": -156.01931343658907, "alt_km": 20297.90080875745, "timestamp": "2025-12-06T18:50:10.427277+00:00", "meta": {"OBJECT_NAME": "GPS BIII-4  (PRN 14)", "OBJECT_ID": "2020-078A", "EPOCH": "2025-11-12T03:01:29.191584", "MEAN_MOTION": 2.00567032, "ECCENTRICITY": 0.00639112, "INCLINATION": 54.0223, "RA_OF_ASC_NODE": 219.5836, "ARG_OF_PERICENTER": 203.4986, "MEAN_ANOMALY": 326.7753, "EPHEMERIS_TYPE": 0, "CLASSIFICATION_TYPE": "U", "NORAD_CAT_ID": 46826, "ELEMENT_SET_NO": 999, "REV_AT_EPOCH": 3715, "BSTAR": 0, "MEAN_MOTION_DOT": -3.4e-07, "MEAN_MOTION_DDOT": 0}, "tle": {"line1": "1 46826U 20078A   25316.12603231 -.00000034  00000+0  00000+0 0  9994", "line2": "2 46826  54.0223 219.5836 0063911 203.4986 326.7753  2.00567032 37154"}}, "geometry": {"type": "Point", "coordinates": [-156.01931343658907, -19.159971592629184]}}, {"type": "Feature", "properties": {"norad_id": 48859, "name": "GPS BIII-5  (PRN 11)", "group": "gps-ops", "lat": 15.479537653365318, "lon": 149.10904632185876, "alt_km": 20161.124950234043, "timestamp": "2025-12-06T18:50:10.427289+00:00", "meta": {"OBJECT_NAME": "GPS BIII-5  (PRN 11)", "OBJECT_ID": "2021-054A", "EPOCH": "2025-11-30T17:12:22.002912", "MEAN_MOTION": 2.00553932, "ECCENTRICITY": 0.0024653, "INCLINATION": 55.2606, "RA_OF_ASC_NODE": 340.4377, "ARG_OF_PERICENTER": 232.9477, "MEAN_ANOMALY": 227.2059, "EPHEMERIS_TYPE": 0, "CLASSIFICATION_TYPE": "U", "NORAD_CAT_ID": 48859, "ELEMENT_SET_NO": 999, "REV_AT_EPOCH": 3277, "BSTAR": 0, "MEAN_MOTION_DOT": -5.5e-07, "MEAN_MOTION_DDOT": 0}, "tle": {"line1": "1 48859U 21054A   25334.71692133 -.00000055  00000+0  00000+0 0  9994", "line2": "2 48859  55.2606 340.4377 0024653 232.9477 227.2059  2.00553932 32777"}}, "geometry": {"type": "Point", "coordinates": [149.10904632185876, 15.479537653365318]}}, {"type": "Feature", "properties": {"norad_id": 55268, "name": "GPS BIII-6  (PRN 28)", "group": "gps-ops", "lat": -19.187436036377438, "lon": -9.865123429826587, "alt_km": 20194.26124812167, "timestamp": "2025-12-06T18:50:10.427300+00:00", "meta": {"OBJECT_NAME": "GPS BIII-6  (PRN 28)", "OBJECT_ID": "2023-009A", "EPOCH": "2025-12-03T18:12:38.807136", "MEAN_MOTION": 2.00556312, "ECCENTRICITY": 0.00036355, "INCLINATION": 55.1062, "RA_OF_ASC_NODE": 156.1984, "ARG_OF_PERICENTER": 358.5946, "MEAN_ANOMALY": 180.1179, "EPHEMERIS_TYPE": 0, "CLASSIFICATION_TYPE": "U", "NORAD_CAT_ID": 55268, "ELEMENT_SET_NO": 999, "REV_AT_EPOCH": 2132, "BSTAR": 0, "MEAN_MOTION_DOT": 9.9e-07, "MEAN_MOTION_DDOT": 0}, "tle": {"line1": "1 55268U 23009A   25337.75878249  .00000099  00000+0  00000+0 0  9996", "line2": "2 55268  55.1062 156.1984 0003635 358.5946 180.1179  2.00556312 21327"}}, "geometry": {"type": "Point", "coordinates": [-9.865123429826587, -19.187436036377438]}}]}